NORAD_CAT_ID,OBJECT_NAME,OBJECT_TYPE,EPOCH,MEAN_MOTION,ECCENTRICITY,INCLINATION,RA_OF_ASC_NODE,ARG_OF_PERICENTER,MEAN_ANOMALY,BSTAR,MEAN_MOTION_DOT,MEAN_MOTION_DDOT,TLE_LINE0,TLE_LINE1,TLE_LINE2,SEMIMAJOR_AXIS,PERIOD,APOGEE,PERIGEE,DECAYED
53733.0,STARLINK-4574,PAYLOAD,2024-08-12 05:04:19,15.08849736,0.0001833,53.2176,313.294,95.969,264.1511,0.00019539,2.824e-05,0.0,0 STARLINK-4574,1 53733U 22107AK  24225.21134206  .00002824  00000-0  19539-3 0  9993,2 53733  53.2176 313.2940 0001833  95.9690 264.1511 15.08849736107225,6917.851,95.437,540.984,538.448,0.0
53733.0,STARLINK-4574,PAYLOAD,2024-08-12 14:36:37,15.08877442,0.0001488,53.2179,311.5017,60.1519,299.9621,0.00083028,0.00012964,0.0,0 STARLINK-4574,1 53733U 22107AK  24225.60876833  .00012964  00000-0  83028-3 0  9995,2 53733  53.2179 311.5017 0001488  60.1519 299.9621 15.08877442107913,6917.766,95.435,540.66,538.602,0.0
53733.0,STARLINK-4574,PAYLOAD,2024-08-12 22:33:34,15.08848845,0.0002221,53.2167,310.0169,74.6825,285.4413,0.00023999,3.534e-05,0.0,0 STARLINK-4574,1 53733U 22107AK  24225.93997849  .00003534  00000-0  23999-3 0  9996,2 53733  53.2167 310.0169 0002221  74.6825 285.4413 15.08848845107967,6917.853,95.437,541.255,538.182,0.0
53733.0,STARLINK-4574,PAYLOAD,2024-08-13 04:55:06,15.08841849,0.0002525,53.2169,308.8302,86.3287,273.7994,-0.00013434,-2.426e-05,0.0,0 STARLINK-4574,1 53733U 22107AK  24226.20493969 -.00002426  00000-0 -13434-3 0  9995,2 53733  53.2169 308.8302 0002525  86.3287 273.7994 15.08841849107378,6917.875,95.437,541.487,537.993,0.0
53733.0,STARLINK-4574,PAYLOAD,2024-08-13 09:41:17,15.08791139,5.6e-05,53.2149,307.9291,46.566,313.5379,-0.0010936,-0.00017626,0.0,0 STARLINK-4574,1 53733U 22107AK  24226.40367596 -.00017626  00000-0 -10936-2 0  9994,2 53733  53.2149 307.9291 0000560  46.5660 313.5379 15.08791139107403,6918.03,95.441,540.282,539.507,0.0
53733.0,STARLINK-4574,PAYLOAD,2024-08-13 14:27:28,15.0875329,0.000121,53.2171,307.0443,92.0017,268.1114,-0.0017367,-0.00027755,0.0,0 STARLINK-4574,1 53733U 22107AK  24226.60241892 -.00027755  00000-0 -17367-2 0  9995,2 53733  53.2171 307.0443 0001210  92.0017 268.1114 15.08753290108064,6918.145,95.443,540.848,539.173,0.0
53733.0,STARLINK-4574,PAYLOAD,2024-08-13 22:24:24,15.08782991,7.16e-05,53.2161,305.556,145.0294,215.0746,-0.00062912,-0.0001027,0.0,0 STARLINK-4574,1 53733U 22107AK  24226.93362000 -.00010270  00000-0 -62912-3 0  9997,2 53733  53.2161 305.5560 0000716 145.0294 215.0746 15.08782991108110,6918.055,95.441,540.415,539.424,0.0
53733.0,STARLINK-4574,PAYLOAD,2024-08-14 12:42:52,15.08838256,0.0001719,53.2162,302.8798,109.1882,250.9296,0.00088327,0.00013797,0.0,0 STARLINK-4574,1 53733U 22107AK  24227.52977795  .00013797  00000-0  88327-3 0  9999,2 53733  53.2162 302.8798 0001719 109.1882 250.9296 15.08838256107575,6917.886,95.438,540.94,538.562,0.0
53733.0,STARLINK-4574,PAYLOAD,2024-08-14 22:15:11,15.08844612,0.0002029,53.2157,301.0988,114.6217,245.4986,0.00098243,0.00015384,0.0,0 STARLINK-4574,1 53733U 22107AK  24227.92721911  .00015384  00000-0  98243-3 0  9992,2 53733  53.2157 301.0988 0002029 114.6217 245.4986 15.08844612108264,6917.866,95.437,541.135,538.328,0.0
53733.0,STARLINK-4574,PAYLOAD,2024-08-15 10:58:16,15.08849601,0.0001491,53.2145,298.7149,139.02,221.0904,0.00080386,0.00012532,0.0,0 STARLINK-4574,1 53733U 22107AK  24228.45713228  .00012532  00000-0  80386-3 0  9994,2 53733  53.2145 298.7149 0001491 139.0200 221.0904 15.08849601108349,6917.851,95.437,540.747,538.685,0.0
53733.0,STARLINK-4574,PAYLOAD,2024-08-15 22:05:57,15.08851588,0.0001687,53.2138,296.6323,143.9093,216.2014,0.00034441,5.199e-05,0.0,0 STARLINK-4574,1 53733U 22107AK  24228.92080673  .00005199  00000-0  34441-3 0  9999,2 53733  53.2138 296.6323 0001687 143.9093 216.2014 15.08851588108416,6917.845,95.437,540.877,538.543,0.0
53733.0,STARLINK-4574,PAYLOAD,2024-08-16 09:13:40,15.08841149,0.000175,53.2142,294.552,137.7589,222.3538,0.00015704,2.212e-05,0.0,0 STARLINK-4574,1 53733U 22107AK  24229.38449076  .00002212  00000-0  15704-3 0  9990,2 53733  53.2142 294.5520 0001750 137.7589 222.3538 15.08841149107857,6917.877,95.437,540.953,538.531,0.0
53733.0,STARLINK-4574,PAYLOAD,2024-08-17 07:29:02,15.0885179,0.0001801,53.2122,290.3878,138.2528,221.8602,-1.7859e-05,-5.72e-06,0.0,0 STARLINK-4574,1 53733U 22107AK  24230.31184024 -.00000572  00000-0 -17859-4 0  9997,2 53733  53.2122 290.3878 0001801 138.2528 221.8602 15.08851790107995,6917.844,95.437,540.955,538.463,0.0
53733.0,STARLINK-4574,PAYLOAD,2024-08-18 10:30:36,15.0884525,0.000153,53.2164,285.3367,115.6732,244.4418,7.9201e-05,9.73e-06,0.0,0 STARLINK-4574,1 53733U 22107AK  24231.43791846  .00000973  00000-0  79201-4 0  9999,2 53733  53.2164 285.3367 0001530 115.6732 244.4418 15.08845250108163,6917.864,95.437,540.788,538.671,0.0
53733.0,STARLINK-4574,PAYLOAD,2024-08-18 13:41:22,15.08845487,0.0001483,53.2164,284.7395,114.0075,246.1072,7.5834e-05,9.19e-06,0.0,0 STARLINK-4574,1 53733U 22107AK  24231.57039743  .00000919  00000-0  75834-4 0  9993,2 53733  53.2164 284.7395 0001483 114.0075 246.1072 15.08845487108816,6917.864,95.437,540.755,538.703,0.0
53733.0,STARLINK-4574,PAYLOAD,2024-08-19 03:59:51,15.08834648,0.0001589,53.2163,282.0607,110.3568,249.7595,1.8678e-06,-2.58e-06,0.0,0 STARLINK-4574,1 53733U 22107AK  24232.16656634 -.00000258  00000-0  18678-5 0  9994,2 53733  53.2163 282.0607 0001589 110.3568 249.7595 15.08834648108271,6917.897,95.438,540.861,538.662,0.0
53733.0,STARLINK-4574,PAYLOAD,2024-08-19 10:21:24,15.08833036,0.0001246,53.2166,280.8772,100.5652,259.5481,-1.8316e-05,-5.79e-06,0.0,0 STARLINK-4574,1 53733U 22107AK  24232.43152941 -.00000579  00000-0 -18316-4 0  9991,2 53733  53.2166 280.8772 0001246 100.5652 259.5481 15.08833036108945,6917.902,95.438,540.629,538.905,0.0
53733.0,STARLINK-4574,PAYLOAD,2024-08-20 11:47:33,15.08847722,0.0001262,53.2159,276.1178,108.3133,251.7996,8.3346e-05,1.039e-05,0.0,0 STARLINK-4574,1 53733U 22107AK  24233.49135786  .00001039  00000-0  83346-4 0  9991,2 53733  53.2159 276.1178 0001262 108.3133 251.7996 15.08847722108473,6917.857,95.437,540.595,538.849,0.0
53733.0,STARLINK-4574,PAYLOAD,2024-08-21 02:06:02,15.08834668,0.0001406,53.2182,273.4453,82.287,277.8281,0.00012674,1.729e-05,0.0,0 STARLINK-4574,1 53733U 22107AK  24234.08752651  .00001729  00000-0  12674-3 0  9994,2 53733  53.2182 273.4453 0001406  82.2870 277.8281 15.08834668108564,6917.897,95.438,540.734,538.789,0.0
53733.0,STARLINK-4574,PAYLOAD,2024-08-21 10:02:58,15.08830099,0.0001297,53.2168,271.9536,92.7678,267.3462,7.2924e-05,8.73e-06,0.0,0 STARLINK-4574,1 53733U 22107AK  24234.41873342  .00000873  00000-0  72924-4 0  9996,2 53733  53.2168 271.9536 0001297  92.7678 267.3462 15.08830099108618,6917.911,95.438,540.673,538.878,0.0
53733.0,STARLINK-4574,PAYLOAD,2024-08-21 19:35:17,15.08834534,0.0001344,53.2169,270.1693,83.7564,276.3581,2.3355e-05,8.4e-07,0.0,0 STARLINK-4574,1 53733U 22107AK  24234.81617379  .00000084  00000-0  23355-4 0  9994,2 53733  53.2169 270.1693 0001344  83.7564 276.3581 15.08834534109308,6917.897,95.438,540.692,538.832,0.0
